<?xml version="1.0" encoding="UTF-8"?>
<kml xmlns="http://www.opengis.net/kml/2.2"><Document>
<name>Zona rawan banjir Kali Acai (DATA CONTOH)</name>
<description>Data contoh untuk pengujian antarmuka, BUKAN data BPBD/InaRISK. Ganti dengan data dari BPBD.</description>
<Placemark><name>Zona bahaya tinggi (contoh)</name><ExtendedData><Data name="KELAS"><value>Tinggi</value></Data><Data name="INDEKS"><value>0.78</value></Data></ExtendedData><Polygon><outerBoundaryIs><LinearRing><coordinates>140.660907,-2.601154,0 140.661806,-2.601359,0 140.662705,-2.601560,0 140.663605,-2.601726,0 140.664504,-2.601834,0 140.665403,-2.601867,0 140.666302,-2.601820,0 140.667202,-2.601702,0 140.668101,-2.601528,0 140.669000,-2.601324,0 140.669899,-2.601121,0 140.670798,-2.600947,0 140.671698,-2.600828,0 140.672597,-2.600782,0 140.673496,-2.600815,0 140.674395,-2.600922,0 140.675295,-2.601089,0 140.676194,-2.601289,0 140.677093,-2.601495,0 140.677093,-2.603846,0 140.676194,-2.603641,0 140.675295,-2.603440,0 140.674395,-2.603274,0 140.673496,-2.603166,0 140.672597,-2.603133,0 140.671698,-2.603180,0 140.670798,-2.603298,0 140.669899,-2.603472,0 140.669000,-2.603676,0 140.668101,-2.603879,0 140.667202,-2.604053,0 140.666302,-2.604172,0 140.665403,-2.604218,0 140.664504,-2.604185,0 140.663605,-2.604078,0 140.662705,-2.603911,0 140.661806,-2.603711,0 140.660907,-2.603505,0 140.660907,-2.601154,0</coordinates></LinearRing></outerBoundaryIs></Polygon></Placemark>
<Placemark><name>Zona bahaya sedang utara (contoh)</name><ExtendedData><Data name="KELAS"><value>Sedang</value></Data><Data name="INDEKS"><value>0.45</value></Data></ExtendedData><Polygon><outerBoundaryIs><LinearRing><coordinates>140.660907,-2.599435,0 140.661806,-2.599641,0 140.662705,-2.599842,0 140.663605,-2.600008,0 140.664504,-2.600115,0 140.665403,-2.600148,0 140.666302,-2.600102,0 140.667202,-2.599983,0 140.668101,-2.599810,0 140.669000,-2.599606,0 140.669899,-2.599402,0 140.670798,-2.599229,0 140.671698,-2.599110,0 140.672597,-2.599064,0 140.673496,-2.599097,0 140.674395,-2.599204,0 140.675295,-2.599370,0 140.676194,-2.599571,0 140.677093,-2.599777,0 140.677093,-2.601495,0 140.676194,-2.601289,0 140.675295,-2.601089,0 140.674395,-2.600922,0 140.673496,-2.600815,0 140.672597,-2.600782,0 140.671698,-2.600828,0 140.670798,-2.600947,0 140.669899,-2.601121,0 140.669000,-2.601324,0 140.668101,-2.601528,0 140.667202,-2.601702,0 140.666302,-2.601820,0 140.665403,-2.601867,0 140.664504,-2.601834,0 140.663605,-2.601726,0 140.662705,-2.601560,0 140.661806,-2.601359,0 140.660907,-2.601154,0 140.660907,-2.599435,0</coordinates></LinearRing></outerBoundaryIs></Polygon></Placemark>
<Placemark><name>Zona bahaya sedang selatan (contoh)</name><ExtendedData><Data name="KELAS"><value>Sedang</value></Data><Data name="INDEKS"><value>0.45</value></Data></ExtendedData><Polygon><outerBoundaryIs><LinearRing><coordinates>140.660907,-2.603505,0 140.661806,-2.603711,0 140.662705,-2.603911,0 140.663605,-2.604078,0 140.664504,-2.604185,0 140.665403,-2.604218,0 140.666302,-2.604172,0 140.667202,-2.604053,0 140.668101,-2.603879,0 140.669000,-2.603676,0 140.669899,-2.603472,0 140.670798,-2.603298,0 140.671698,-2.603180,0 140.672597,-2.603133,0 140.673496,-2.603166,0 140.674395,-2.603274,0 140.675295,-2.603440,0 140.676194,-2.603641,0 140.677093,-2.603846,0 140.677093,-2.605565,0 140.676194,-2.605359,0 140.675295,-2.605158,0 140.674395,-2.604992,0 140.673496,-2.604885,0 140.672597,-2.604852,0 140.671698,-2.604898,0 140.670798,-2.605017,0 140.669899,-2.605190,0 140.669000,-2.605394,0 140.668101,-2.605598,0 140.667202,-2.605771,0 140.666302,-2.605890,0 140.665403,-2.605936,0 140.664504,-2.605903,0 140.663605,-2.605796,0 140.662705,-2.605630,0 140.661806,-2.605429,0 140.660907,-2.605223,0 140.660907,-2.603505,0</coordinates></LinearRing></outerBoundaryIs></Polygon></Placemark>
<Placemark><name>Zona bahaya rendah utara (contoh)</name><ExtendedData><Data name="KELAS"><value>Rendah</value></Data><Data name="INDEKS"><value>0.18</value></Data></ExtendedData><Polygon><outerBoundaryIs><LinearRing><coordinates>140.660907,-2.597265,0 140.661806,-2.597471,0 140.662705,-2.597671,0 140.663605,-2.597837,0 140.664504,-2.597945,0 140.665403,-2.597978,0 140.666302,-2.597932,0 140.667202,-2.597813,0 140.668101,-2.597639,0 140.669000,-2.597436,0 140.669899,-2.597232,0 140.670798,-2.597058,0 140.671698,-2.596939,0 140.672597,-2.596893,0 140.673496,-2.596926,0 140.674395,-2.597034,0 140.675295,-2.597200,0 140.676194,-2.597400,0 140.677093,-2.597606,0 140.677093,-2.599777,0 140.676194,-2.599571,0 140.675295,-2.599370,0 140.674395,-2.599204,0 140.673496,-2.599097,0 140.672597,-2.599064,0 140.671698,-2.599110,0 140.670798,-2.599229,0 140.669899,-2.599402,0 140.669000,-2.599606,0 140.668101,-2.599810,0 140.667202,-2.599983,0 140.666302,-2.600102,0 140.665403,-2.600148,0 140.664504,-2.600115,0 140.663605,-2.600008,0 140.662705,-2.599842,0 140.661806,-2.599641,0 140.660907,-2.599435,0 140.660907,-2.597265,0</coordinates></LinearRing></outerBoundaryIs></Polygon></Placemark>
<Placemark><name>Zona bahaya rendah selatan (contoh)</name><ExtendedData><Data name="KELAS"><value>Rendah</value></Data><Data name="INDEKS"><value>0.18</value></Data></ExtendedData><Polygon><outerBoundaryIs><LinearRing><coordinates>140.660907,-2.605223,0 140.661806,-2.605429,0 140.662705,-2.605630,0 140.663605,-2.605796,0 140.664504,-2.605903,0 140.665403,-2.605936,0 140.666302,-2.605890,0 140.667202,-2.605771,0 140.668101,-2.605598,0 140.669000,-2.605394,0 140.669899,-2.605190,0 140.670798,-2.605017,0 140.671698,-2.604898,0 140.672597,-2.604852,0 140.673496,-2.604885,0 140.674395,-2.604992,0 140.675295,-2.605158,0 140.676194,-2.605359,0 140.677093,-2.605565,0 140.677093,-2.607735,0 140.676194,-2.607529,0 140.675295,-2.607329,0 140.674395,-2.607163,0 140.673496,-2.607055,0 140.672597,-2.607022,0 140.671698,-2.607068,0 140.670798,-2.607187,0 140.669899,-2.607361,0 140.669000,-2.607564,0 140.668101,-2.607768,0 140.667202,-2.607942,0 140.666302,-2.608061,0 140.665403,-2.608107,0 140.664504,-2.608074,0 140.663605,-2.607966,0 140.662705,-2.607800,0 140.661806,-2.607600,0 140.660907,-2.607394,0 140.660907,-2.605223,0</coordinates></LinearRing></outerBoundaryIs></Polygon></Placemark>
</Document></kml>
